#dP2022  5 20  0  0  0.00000000      96 __u+U ITR00 EXT  IAC
## 2210 432000.00000000   900.00000000 59719 0.0000000000000
+  116   C06C07C08C09C10C11C12C13C14C16C19C20C21C22C23C24C25
+        C26C27C28C29C30C32C33C34C35C36C37C38C39C40C41C42C43
+        C44C45C46E02E03E04E05E07E08E09E10E11E12E13E14E15E18
+        E19E21E24E25E26E27E30E31E33E34E36G01G02G03G04G05G06
+        G07G08G09G10G11G12G13G14G15G16G17G18G19G20G21G22G23
+        G24G25G26G27G28G29G30G31G32J02J03R01R02R03R04R05R07
+        R08R09R11R12R13R14R15R17R18R19R20R21R22R24  0  0  0
++         9  8 11 10  8  9  9 10  9  8  8  9 10  8  7 10  9
++         9  8  9  7  7  9  8 10  8  8 10 11 11  9  8  8  9
++         8  8  9  7  8  0  7  8  8  8  9  8  9  9  9  8  9
++         9  7  8  8  8  7  8  9  8  8  7  9  7  8  8  8  6
++         8  7  7  7  9  8  6  7  7  9  8  7  7  7  7  7  9
++         8  9  6  7  8  8  7  7  7  9  9  8  8 10  9  8  9
++         8  9  7  8  6  9  8  8  7  8  8  6 10  8  0  0  0
%c M  cc GPS ccc cccc cccc cccc cccc ccccc ccccc ccccc ccccc
%c cc cc ccc ccc cccc cccc cccc cccc ccccc ccccc ccccc ccccc
%f  0.0000000  0.000000000  0.00000000000  0.000000000000000
%f  0.0000000  0.000000000  0.00000000000  0.000000000000000
%i    0    0    0    0      0      0      0      0         0
%i    0    0    0    0      0      0      0      0         0
/* IAC                                ULTRA-RAPID PREDICTION
/* S/V CLOCKS ARE ALIGNED TO GNSS TIME                      
/* G:C1WC2W R:C1PC2P E:C1XC5X C:C2IC6I J:C1CC2S             
/* PCV:IGS14_2196 OL/AL:FES2004  NONE     YN ORB:CoN CLK:CoN
*  2022 05 20  7 45  0.00000000
PC06 -11334.083611  23496.553771 -33145.195560     20.633247
PC07 -14478.384233  39212.292622   4862.316494   -189.878765
PC08    831.813121  32543.034045  26885.001198    322.028462
PC09  -2346.438208  24231.994873 -34053.965654   -804.412853
PC10  -7559.925862  39452.501991  12236.410626    131.347457
PC11   9379.432815  14505.251700  21980.421706    363.323048
PC12 -11441.251403  14062.423409  21239.814826   -613.294643
PC13   6446.239084  36173.445361  21041.653205    -27.651210
PC14   1845.368002  21726.129773 -17355.150225    479.138085
PC16 -15073.700193  22193.851900 -32412.309058    133.029474
PC19  -9358.205648 -14436.738471  22007.742632    868.175323
PC20   4654.402646 -25043.605478  11458.413502   -922.429617
PC21 -16836.746566  21198.062230   6738.433446   -324.561728
PC22 -18548.878371   4927.727407  20253.401656   -969.054523
PC23  19620.956849   6404.718911  18786.911555   -930.322425
PC24   3543.113813  24315.387205 -13254.908630   -966.801318
PC25  17587.664325  21128.855996   4849.967986   -734.040352
PC26 -10047.238917  13737.072960 -22130.631092    735.311351
PC27  20022.086467 -11185.279617 -15911.425768    726.007641
PC28  27906.720598   -178.030234     95.549971     68.856576
PC29 -19700.413350 -10648.925542 -16665.302789    557.103847
PC30    738.056172 -15952.169214 -22895.411426    498.754510
PC32  16672.042577 -21350.746022  -6717.995781   -963.773914
PC33   9412.513815  14426.244118 -21940.183994   -966.070205
PC34    389.251659  15950.009338  22879.186313   -399.515927
PC35 -27900.230813    466.339613  -1119.073414    282.308245
PC36 -16841.235027 -21819.695312  -4331.165765   -964.615704
PC37  11224.104695 -12383.467705  22360.835521   -910.434774
PC38  -6240.860074  28667.129565  30364.965526    233.420850
PC39 -20726.343420  21570.509582 -29755.435209     34.985723
PC40 -21385.942834  36166.092816   2186.231193    270.552516
PC41  18444.102392  -4540.175856 -20389.611409   -966.250916
PC42  -5439.336441  25255.501031 -10471.508821   -970.616462
PC43  19058.529298  11129.482514  17049.927490   -923.052761
PC44 -19836.193617  11859.275249  15649.243164    665.438307
PC45 -19472.830270  -6137.694162 -19011.552703    761.727792
PC46  -4838.104102 -24667.719926  12084.335639   -334.224701
PE02   3300.522432  29183.768357   3746.629314    300.322247
PE03    105.807670  18870.147008 -22796.725571   -560.126526
PE04      0.000000      0.000000      0.000000  -1031.850648
PE05 -18979.182214  20266.695636 -10244.260100   -179.948722
PE07  26723.622498  -9875.112687  -8041.322001   -670.288043
PE08  18895.911920   6219.545276 -21914.964753   -532.192253
PE09 -26658.097746  10053.332813   8008.239636   -524.503977
PE10 -27240.757837  -9207.577879   7015.861241   -514.183431
PE11 -24801.570885  -1335.541256  16102.524032   3615.259442
PE12 -25191.031493 -15340.625765  -2653.691588   4604.799808
PE13  25071.072577   1842.495999 -15621.424953    428.790073
PE14   7663.253100 -22682.007087 -21990.890479  -1832.339058
PE15  25159.609277  15330.119529   2802.866344    744.562325
PE18  -1098.170345  15850.400141  17379.367207  -1427.761170
PE19   2600.670795 -19640.775500  22004.840633  -4968.689526
PE21   8535.581603 -24865.830224  13598.604608   -735.240247
PE24 -16427.243279   4593.038458 -24206.952886   -624.827850
PE25  -8687.751449  24694.517964 -13815.364827   -574.582719
PE26   9413.895482 -13313.269723 -24706.231847  -1165.548108
PE27  16187.250302  -5993.411362  24047.035391   -302.908565
PE30  13859.763966  17243.895254  19662.027715   -524.971270
PE31 -14240.238939 -16225.267971 -20244.487248   -496.915585
PE33 -10420.904992 -19712.376599 -19476.401565   -456.460442
PE34  10652.076260  19703.246970  19341.223318   -517.959722
PE36 -10281.754515  12609.357664  24724.974651   -376.213403
PG01 -22473.960936 -14281.458676   2289.644998    359.065704
PG02   8794.895399  18859.626497  17069.631519   -653.206325
PG03 -12827.004285 -11330.834758  20232.696471   -250.640564
PG04 -20115.518723  -4231.239546  16877.107641   -165.531301
PG05   6336.038405  23533.673408 -10541.179497    -82.501124
PG06  -6657.510870  13186.316370  22130.933617    310.356010
PG07 -21550.567641  -1809.249790 -15338.513868    322.171184
PG08 -12797.250246 -10034.101439 -21104.704823    -68.749580
PG09 -24556.885396   5280.928724   8612.060215   -335.340962
PG10  11482.930279 -18740.371955 -14551.013060   -421.461754
PG11   7389.212809  19897.007898  15972.490808    -22.814582
PG12  10139.758728  16148.522205  18270.314877   -218.238050
PG13   2690.374581  14958.528437 -21924.632658    314.818906
PG14 -13041.411419  17403.370630 -15187.995675   -109.048329
PG15  14749.419618   8913.350557 -20690.202474    -59.838729
PG16   -243.254749 -25490.126430  -6820.088699   -502.399565
PG17 -21060.473126  14243.456857   8197.610689    614.822137
PG18  21372.478425   2316.618557 -15678.780244    165.277256
PG19 -15892.187512  15536.127605  14122.152341    159.684499
PG20   1374.620947  26641.558270    741.811391    514.571110
PG21 -19542.425164 -16942.445416  -6794.987776    161.148880
PG22  12605.475051 -16923.494878  16435.535236    262.062352
PG23  14652.703201  -8067.079614 -20616.930351    -23.034644
PG24  22105.331852  14986.588511  -2365.850954    237.778391
PG25  15159.353829    526.273799  21510.103903    326.979978
PG26   4593.681970 -25445.671195   5220.857513    206.844171
PG27    483.792407 -16192.270448 -21183.150627    205.605215
PG28  -9227.493828  23863.509839  -7046.066934    354.694673
PG29  24869.844543  -3107.805640   8840.602066   -515.530781
PG30 -15530.001351   7199.512350 -20282.383827   -528.562072
PG31   4906.283230 -14985.721907  21182.312538   -178.360434
PG32  18661.399325 -16292.562272   9459.345964   -131.265256
PJ02 -20016.487526  29555.124465 -17740.380821     -0.194923
PJ03 -29054.131206  23971.204977  24091.775635     -2.277436
PR01 -10575.713656  21116.682814  -9611.841401      8.893729
PR02   3826.893406  11802.005743 -22248.613314    518.896706
PR03  15274.115486  -3685.486494 -20026.854014     56.954706
PR04  17937.705175 -16833.741722  -6701.493494    142.372966
PR05  10831.442287 -20647.271336  10339.130269     93.166901
PR07 -15653.691805   4360.332677  19722.436934     35.311809
PR08 -17934.959963  16899.647216   6696.378448    -65.236040
PR09 -11801.939769 -21975.469684  -5505.214257     55.998266
PR11  -8155.540068   8450.571507 -22631.390088     38.534457
PR12   2518.846992  22378.187568 -11971.773441     18.522626
PR13  11184.652459  22521.777088   4265.796275    -22.549861
PR14  13664.302166   8884.690240  19626.585252     25.620328
PR15   7949.860944  -9265.291889  22416.472201     95.985654
PR17  25103.015424   4568.024745    770.624574    527.612878
PR18  20207.126087  -3354.366839 -15156.142489    117.440651
PR19   6271.700262  -9130.532337 -22983.572165   -189.654311
PR20 -15152.428855 -10966.844724 -17366.261126    -70.924587
PR21 -25167.064895  -4016.638381    752.054595   -302.712894
PR22 -19770.256599   3545.607288  15767.394017   -184.302721
PR24  15923.990726  10819.978799  16749.167689     94.593781
EOF
